[Satellite]
VERSION=1.1
NAME=OUFTI-1
NICKNAME=OUFTI-1
TLE1=1 41458U 16025C   18020.84749973  .00000316  00000-0  21519-4 0  9990
TLE2=2 41458  98.1558  75.7153 0169724 281.7149  76.5076 15.04161018 95292
